{"fetched_at":"2026-03-29T16:36:15Z","count":15609,"tles":[{"name":"STARLINK-5450","line1":"1 54778U 22175W   26087.86635515 -.00000432  00000+0 -90851-5 0  9998","line2":"2 54778  53.2176 303.0995 0001088  90.4846 269.6271 15.08845889183027","category":"Starlink"}]}