{
  "norad_id": 54778,
  "name": "STARLINK-5450",
  "history": [
    {
      "epoch": "2026-03-28T20:47:33.084960",
      "apogee_km": 540.4781213120941,
      "perigee_km": 538.9726560990648,
      "latitude_deg": 35.764277381368196,
      "longitude_deg": 100.97009439999238,
      "semi_major_axis_km": 6917.862388705579,
      "eccentricity": 0.00010881,
      "inclination_deg": 53.2176,
      "raan_deg": 303.0995,
      "arg_perigee_deg": 90.4846,
      "mean_anomaly_deg": 269.6271,
      "mean_motion_rev_day": 15.08845889
    }
  ]
}